{
  "norad_id": 58559,
  "name": "YAOGAN-39 05C",
  "history": [
    {
      "epoch": "2026-03-28T20:11:06.122976",
      "apogee_km": 524.0254342494654,
      "perigee_km": 506.2211080255556,
      "latitude_deg": -2.4599049980181196,
      "longitude_deg": 116.64013664005324,
      "semi_major_axis_km": 6893.26027113751,
      "eccentricity": 0.00129143,
      "inclination_deg": 34.9913,
      "raan_deg": 222.1354,
      "arg_perigee_deg": 36.4011,
      "mean_anomaly_deg": 323.7578,
      "mean_motion_rev_day": 15.16930722
    }
  ]
}